FLOCK 4H-21             
1 66724U 25276BL  25360.43907240 -.00015096  00000+0 -73348-3 0  9992
2 66724  97.4381  71.9904 0002071 178.7991 181.3249 15.18368984  3454
FLOCK 4H-22             
1 66725U 25276BM  25360.45446423  .00005777  00000+0  29120-3 0  9998
2 66725  97.4370  71.9642 0001463 267.9198  92.1868 15.17536690  4206
FLOCK 4H-23             
1 66726U 25276BN  25360.52466411 -.00046618  00000+0 -23619-2 0  9993
2 66726  97.4432  72.0503 0001736 319.7640  40.3465 15.17163786  4216
FLOCK 4H-24             
1 66727U 25276BP  25360.58864958  .00005722  00000+0  28982-3 0  9996
2 66727  97.4434  72.1201 0002915 243.5600 116.5335 15.17371826  4224
FLOCK 4H-25             
1 66728U 25276BQ  25360.57239865  .00006210  00000+0  30637-3 0  9992
2 66728  97.4390  72.1231 0001741 114.2946 245.8470 15.18258959  3500
FLOCK 4H-26             
1 66729U 25276BR  25360.59225284  .00004111  00000+0  21024-3 0  9993
2 66729  97.4387  72.0956 0003627 239.9747 120.1127 15.17198109  4222
FLOCK 4H-27             
1 66730U 25276BS  25360.57485049  .00011339  00000+0  55842-3 0  9995
2 66730  97.4365  72.1109 0001392 129.2823 230.8534 15.18133474  4220
FLOCK 4H-28             
1 66731U 25276BT  25360.59197170  .00006690  00000+0  34004-3 0  9994
2 66731  97.4375  72.0918 0003285 243.8204 116.2692 15.17181644  4221
FLOCK 4H-29             
1 66732U 25276BU  25360.58936506  .00104497  00000+0  51508-2 0  9999
2 66732  97.4362  72.0901 0001851 253.8548 106.2482 15.17472042  4220
FLOCK 4H-30             
1 66733U 25276BV  25360.59059391  .00007619  00000+0  38552-3 0  9992
2 66733  97.4429  72.1142 0003258 245.0842 115.0053 15.17298103  4222
FLOCK 4H-31             
1 66734U 25276BW  25360.59060806 -.00147489  00000+0 -76056-2 0  9998
2 66734  97.4366  72.0903 0006659 220.9149 139.1586 15.17035731  4221
FLOCK 4H-32             
1 66735U 25276BX  25360.59094849  .00007315  00000+0  37051-3 0  9997
2 66735  97.4421  72.1102 0003595 240.8543 119.2331 15.17274605  4223
