CCSDS_OMM_VERS = 2.0
CREATION_DATE  = 
ORIGINATOR     = 

OBJECT_NAME    = FLOCK 4H-21
OBJECT_ID      = 2025-276BL
CENTER_NAME    = EARTH
REF_FRAME      = TEME
TIME_SYSTEM    = UTC
MEAN_ELEMENT_THEORY = SGP/SGP4

EPOCH          = 2025-12-26T10:32:15.855360
MEAN_MOTION    = 15.18368984
ECCENTRICITY   = .00020714
INCLINATION    = 97.4381
RA_OF_ASC_NODE = 71.9904
ARG_OF_PERICENTER = 178.7991
MEAN_ANOMALY   = 181.3249

EPHEMERIS_TYPE = 0
CLASSIFICATION_TYPE = U
NORAD_CAT_ID   = 66724
ELEMENT_SET_NO = 999
REV_AT_EPOCH   = 345
BSTAR          = -.73348263E-3
MEAN_MOTION_DOT = -.15096E-3
MEAN_MOTION_DDOT = 0

CCSDS_OMM_VERS = 2.0
CREATION_DATE  = 
ORIGINATOR     = 

OBJECT_NAME    = FLOCK 4H-22
OBJECT_ID      = 2025-276BM
CENTER_NAME    = EARTH
REF_FRAME      = TEME
TIME_SYSTEM    = UTC
MEAN_ELEMENT_THEORY = SGP/SGP4

EPOCH          = 2025-12-26T10:54:25.709472
MEAN_MOTION    = 15.17536690
ECCENTRICITY   = .00014636
INCLINATION    = 97.4370
RA_OF_ASC_NODE = 71.9642
ARG_OF_PERICENTER = 267.9198
MEAN_ANOMALY   = 92.1868

EPHEMERIS_TYPE = 0
CLASSIFICATION_TYPE = U
NORAD_CAT_ID   = 66725
ELEMENT_SET_NO = 999
REV_AT_EPOCH   = 420
BSTAR          = .2911953E-3
MEAN_MOTION_DOT = .5777E-4
MEAN_MOTION_DDOT = 0

CCSDS_OMM_VERS = 2.0
CREATION_DATE  = 
ORIGINATOR     = 

OBJECT_NAME    = FLOCK 4H-23
OBJECT_ID      = 2025-276BN
CENTER_NAME    = EARTH
REF_FRAME      = TEME
TIME_SYSTEM    = UTC
MEAN_ELEMENT_THEORY = SGP/SGP4

EPOCH          = 2025-12-26T12:35:30.979104
MEAN_MOTION    = 15.17163786
ECCENTRICITY   = .00017364
INCLINATION    = 97.4432
RA_OF_ASC_NODE = 72.0503
ARG_OF_PERICENTER = 319.7640
MEAN_ANOMALY   = 40.3465

EPHEMERIS_TYPE = 0
CLASSIFICATION_TYPE = U
NORAD_CAT_ID   = 66726
ELEMENT_SET_NO = 999
REV_AT_EPOCH   = 421
BSTAR          = -.23618623E-2
MEAN_MOTION_DOT = -.46618E-3
MEAN_MOTION_DDOT = 0

CCSDS_OMM_VERS = 2.0
CREATION_DATE  = 
ORIGINATOR     = 

OBJECT_NAME    = FLOCK 4H-24
OBJECT_ID      = 2025-276BP
CENTER_NAME    = EARTH
REF_FRAME      = TEME
TIME_SYSTEM    = UTC
MEAN_ELEMENT_THEORY = SGP/SGP4

EPOCH          = 2025-12-26T14:07:39.323712
MEAN_MOTION    = 15.17371826
ECCENTRICITY   = .00029153
INCLINATION    = 97.4434
RA_OF_ASC_NODE = 72.1201
ARG_OF_PERICENTER = 243.5600
MEAN_ANOMALY   = 116.5335

EPHEMERIS_TYPE = 0
CLASSIFICATION_TYPE = U
NORAD_CAT_ID   = 66727
ELEMENT_SET_NO = 999
REV_AT_EPOCH   = 422
BSTAR          = .28982107E-3
MEAN_MOTION_DOT = .5722E-4
MEAN_MOTION_DDOT = 0

CCSDS_OMM_VERS = 2.0
CREATION_DATE  = 
ORIGINATOR     = 

OBJECT_NAME    = FLOCK 4H-25
OBJECT_ID      = 2025-276BQ
CENTER_NAME    = EARTH
REF_FRAME      = TEME
TIME_SYSTEM    = UTC
MEAN_ELEMENT_THEORY = SGP/SGP4

EPOCH          = 2025-12-26T13:44:15.243360
MEAN_MOTION    = 15.18258959
ECCENTRICITY   = .00017414
INCLINATION    = 97.4390
RA_OF_ASC_NODE = 72.1231
ARG_OF_PERICENTER = 114.2946
MEAN_ANOMALY   = 245.8470

EPHEMERIS_TYPE = 0
CLASSIFICATION_TYPE = U
NORAD_CAT_ID   = 66728
ELEMENT_SET_NO = 999
REV_AT_EPOCH   = 350
BSTAR          = .30637006E-3
MEAN_MOTION_DOT = .621E-4
MEAN_MOTION_DDOT = 0

CCSDS_OMM_VERS = 2.0
CREATION_DATE  = 
ORIGINATOR     = 

OBJECT_NAME    = FLOCK 4H-26
OBJECT_ID      = 2025-276BR
CENTER_NAME    = EARTH
REF_FRAME      = TEME
TIME_SYSTEM    = UTC
MEAN_ELEMENT_THEORY = SGP/SGP4

EPOCH          = 2025-12-26T14:12:50.645376
MEAN_MOTION    = 15.17198109
ECCENTRICITY   = .00036272
INCLINATION    = 97.4387
RA_OF_ASC_NODE = 72.0956
ARG_OF_PERICENTER = 239.9747
MEAN_ANOMALY   = 120.1127

EPHEMERIS_TYPE = 0
CLASSIFICATION_TYPE = U
NORAD_CAT_ID   = 66729
ELEMENT_SET_NO = 999
REV_AT_EPOCH   = 422
BSTAR          = .21023694E-3
MEAN_MOTION_DOT = .4111E-4
MEAN_MOTION_DDOT = 0

CCSDS_OMM_VERS = 2.0
CREATION_DATE  = 
ORIGINATOR     = 

OBJECT_NAME    = FLOCK 4H-27
OBJECT_ID      = 2025-276BS
CENTER_NAME    = EARTH
REF_FRAME      = TEME
TIME_SYSTEM    = UTC
MEAN_ELEMENT_THEORY = SGP/SGP4

EPOCH          = 2025-12-26T13:47:47.082336
MEAN_MOTION    = 15.18133474
ECCENTRICITY   = .00013922
INCLINATION    = 97.4365
RA_OF_ASC_NODE = 72.1109
ARG_OF_PERICENTER = 129.2823
MEAN_ANOMALY   = 230.8534

EPHEMERIS_TYPE = 0
CLASSIFICATION_TYPE = U
NORAD_CAT_ID   = 66730
ELEMENT_SET_NO = 999
REV_AT_EPOCH   = 422
BSTAR          = .55841607E-3
MEAN_MOTION_DOT = .11339E-3
MEAN_MOTION_DDOT = 0

CCSDS_OMM_VERS = 2.0
CREATION_DATE  = 
ORIGINATOR     = 

OBJECT_NAME    = FLOCK 4H-28
OBJECT_ID      = 2025-276BT
CENTER_NAME    = EARTH
REF_FRAME      = TEME
TIME_SYSTEM    = UTC
MEAN_ELEMENT_THEORY = SGP/SGP4

EPOCH          = 2025-12-26T14:12:26.354880
MEAN_MOTION    = 15.17181644
ECCENTRICITY   = .00032859
INCLINATION    = 97.4375
RA_OF_ASC_NODE = 72.0918
ARG_OF_PERICENTER = 243.8204
MEAN_ANOMALY   = 116.2692

EPHEMERIS_TYPE = 0
CLASSIFICATION_TYPE = U
NORAD_CAT_ID   = 66731
ELEMENT_SET_NO = 999
REV_AT_EPOCH   = 422
BSTAR          = .34004237E-3
MEAN_MOTION_DOT = .669E-4
MEAN_MOTION_DDOT = 0

CCSDS_OMM_VERS = 2.0
CREATION_DATE  = 
ORIGINATOR     = 

OBJECT_NAME    = FLOCK 4H-29
OBJECT_ID      = 2025-276BU
CENTER_NAME    = EARTH
REF_FRAME      = TEME
TIME_SYSTEM    = UTC
MEAN_ELEMENT_THEORY = SGP/SGP4

EPOCH          = 2025-12-26T14:08:41.141184
MEAN_MOTION    = 15.17472042
ECCENTRICITY   = .0001851
INCLINATION    = 97.4362
RA_OF_ASC_NODE = 72.0901
ARG_OF_PERICENTER = 253.8548
MEAN_ANOMALY   = 106.2482

EPHEMERIS_TYPE = 0
CLASSIFICATION_TYPE = U
NORAD_CAT_ID   = 66732
ELEMENT_SET_NO = 999
REV_AT_EPOCH   = 422
BSTAR          = .51508408E-2
MEAN_MOTION_DOT = .104497E-2
MEAN_MOTION_DDOT = 0

CCSDS_OMM_VERS = 2.0
CREATION_DATE  = 
ORIGINATOR     = 

OBJECT_NAME    = FLOCK 4H-30
OBJECT_ID      = 2025-276BV
CENTER_NAME    = EARTH
REF_FRAME      = TEME
TIME_SYSTEM    = UTC
MEAN_ELEMENT_THEORY = SGP/SGP4

EPOCH          = 2025-12-26T14:10:27.313824
MEAN_MOTION    = 15.17298103
ECCENTRICITY   = .00032588
INCLINATION    = 97.4429
RA_OF_ASC_NODE = 72.1142
ARG_OF_PERICENTER = 245.0842
MEAN_ANOMALY   = 115.0053

EPHEMERIS_TYPE = 0
CLASSIFICATION_TYPE = U
NORAD_CAT_ID   = 66733
ELEMENT_SET_NO = 999
REV_AT_EPOCH   = 422
BSTAR          = .38552489E-3
MEAN_MOTION_DOT = .7619E-4
MEAN_MOTION_DDOT = 0

CCSDS_OMM_VERS = 2.0
CREATION_DATE  = 
ORIGINATOR     = 

OBJECT_NAME    = FLOCK 4H-31
OBJECT_ID      = 2025-276BW
CENTER_NAME    = EARTH
REF_FRAME      = TEME
TIME_SYSTEM    = UTC
MEAN_ELEMENT_THEORY = SGP/SGP4

EPOCH          = 2025-12-26T14:10:28.536384
MEAN_MOTION    = 15.17035731
ECCENTRICITY   = .00066594
INCLINATION    = 97.4366
RA_OF_ASC_NODE = 72.0903
ARG_OF_PERICENTER = 220.9149
MEAN_ANOMALY   = 139.1586

EPHEMERIS_TYPE = 0
CLASSIFICATION_TYPE = U
NORAD_CAT_ID   = 66734
ELEMENT_SET_NO = 999
REV_AT_EPOCH   = 422
BSTAR          = -.76055856E-2
MEAN_MOTION_DOT = -.147489E-2
MEAN_MOTION_DDOT = 0

CCSDS_OMM_VERS = 2.0
CREATION_DATE  = 
ORIGINATOR     = 

OBJECT_NAME    = FLOCK 4H-32
OBJECT_ID      = 2025-276BX
CENTER_NAME    = EARTH
REF_FRAME      = TEME
TIME_SYSTEM    = UTC
MEAN_ELEMENT_THEORY = SGP/SGP4

EPOCH          = 2025-12-26T14:10:57.949536
MEAN_MOTION    = 15.17274605
ECCENTRICITY   = .00035953
INCLINATION    = 97.4421
RA_OF_ASC_NODE = 72.1102
ARG_OF_PERICENTER = 240.8543
MEAN_ANOMALY   = 119.2331

EPHEMERIS_TYPE = 0
CLASSIFICATION_TYPE = U
NORAD_CAT_ID   = 66735
ELEMENT_SET_NO = 999
REV_AT_EPOCH   = 422
BSTAR          = .37051002E-3
MEAN_MOTION_DOT = .7315E-4
MEAN_MOTION_DDOT = 0

